{"type":"FeatureCollection","name":"real_chuo_route_origins","crs":{"type":"name","properties":{"name":"EPSG:4326"}},"features":[{"type":"Feature","geometry":{"type":"Point","coordinates":[139.7652352,35.6715701]},"properties":{"originId":"route_origin_ginza_001","originName":"Ginza controlled route test origin","routeSource":"OSM","routeType":"estimated_pedestrian_route","isOfficialEvacuationRoute":false}},{"type":"Feature","geometry":{"type":"Point","coordinates":[139.7752439,35.6824518]},"properties":{"originId":"route_origin_nihonbashi_001","originName":"Nihonbashi controlled route test origin","routeSource":"OSM","routeType":"estimated_pedestrian_route","isOfficialEvacuationRoute":false}},{"type":"Feature","geometry":{"type":"Point","coordinates":[139.7777048,35.6686587]},"properties":{"originId":"route_origin_hatchobori_tsukiji_001","originName":"Hatchobori Tsukiji controlled route test origin","routeSource":"OSM","routeType":"estimated_pedestrian_route","isOfficialEvacuationRoute":false}},{"type":"Feature","geometry":{"type":"Point","coordinates":[139.776876,35.6586848]},"properties":{"originId":"route_origin_tsukishima_kachidoki_001","originName":"Tsukishima Kachidoki controlled route test origin","routeSource":"OSM","routeType":"estimated_pedestrian_route","isOfficialEvacuationRoute":false}},{"type":"Feature","geometry":{"type":"Point","coordinates":[139.7906705,35.6501133]},"properties":{"originId":"route_origin_harumi_waterfront_far_001","originName":"Harumi waterfront far controlled route test origin","routeSource":"OSM","routeType":"estimated_pedestrian_route","isOfficialEvacuationRoute":false}}]}
