{
  "type": "FeatureCollection",
  "name": "real_chuo_building_footprints",
  "crs": {
    "type": "name",
    "properties": {
      "name": "EPSG:4326"
    }
  },
  "features": [
    {
      "type": "Feature",
      "geometry": {
        "type": "Polygon",
        "coordinates": [
          [
            [
              139.76844492212913,
              35.67900302682419
            ],
            [
              139.768385187801,
              35.678867635585156
            ],
            [
              139.76840785146132,
              35.678860995683145
            ],
            [
              139.7683988446349,
              35.678837636277436
            ],
            [
              139.7685590398409,
              35.678773662058276
            ],
            [
              139.76856276852766,
              35.678780271121056
            ],
            [
              139.7693861174466,
              35.67843936163855
            ],
            [
              139.76946598939404,
              35.678564838968846
            ],
            [
              139.76950680938052,
              35.6785511146912
            ],
            [
              139.7698059359378,
              35.679029522855174
            ],
            [
              139.76948755659114,
              35.67915782699406
            ],
            [
              139.7696165351404,
              35.679408828254175
            ],
            [
              139.76958093013292,
              35.679421328561105
            ],
            [
              139.76961799901184,
              35.679485166216516
            ],
            [
              139.7691103423718,
              35.67969341987053
            ],
            [
              139.76907580663217,
              35.67963968869338
            ],
            [
              139.7690464008178,
              35.67965005680002
            ],
            [
              139.7689013948964,
              35.6794800706854
            ],
            [
              139.76888235303304,
              35.67948876774632
            ],
            [
              139.76889006859912,
              35.67949703655526
            ],
            [
              139.76882654922252,
              35.679547155774294
            ],
            [
              139.76869072487187,
              35.67939031632482
            ],
            [
              139.76858570469676,
              35.679243110926365
            ],
            [
              139.768483407112,
              35.67907665359419
            ],
            [
              139.76844492212913,
              35.67900302682419
            ]
          ]
        ]
      },
      "properties": {
        "plateauBuildingId": "13102-bldg-3742",
        "plateauGmlId": "bldg_25d370de-2c35-457b-b756-3444a3d02eb3",
        "sourceMeshCode": "53394611",
        "heightMeters": 235.2,
        "floors": null,
        "usage": "9999"
      }
    },
    {
      "type": "Feature",
      "geometry": {
        "type": "Polygon",
        "coordinates": [
          [
            [
              139.77203908141027,
              35.67337789457035
            ],
            [
              139.7716328982653,
              35.673517399905975
            ],
            [
              139.77141128047668,
              35.67325868227296
            ],
            [
              139.7714846044358,
              35.67322060090027
            ],
            [
              139.77143899843563,
              35.67312745663488
            ],
            [
              139.7718133616023,
              35.67299325379026
            ],
            [
              139.77183046097136,
              35.67302309796834
            ],
            [
              139.77189951934994,
              35.673000959449006
            ],
            [
              139.77191010752964,
              35.673022597800184
            ],
            [
              139.77193474660476,
              35.67301594020711
            ],
            [
              139.77203908141027,
              35.67337789457035
            ]
          ]
        ]
      },
      "properties": {
        "plateauBuildingId": "13102-bldg-8069",
        "plateauGmlId": "bldg_b79d201f-b27b-4e20-b342-fb09087fb41d",
        "sourceMeshCode": "53394601",
        "heightMeters": 74.6,
        "floors": 19,
        "usage": "3002"
      }
    },
    {
      "type": "Feature",
      "geometry": {
        "type": "Polygon",
        "coordinates": [
          [
            [
              139.76196445937276,
              35.672570663602094
            ],
            [
              139.7616905772457,
              35.67248937739495
            ],
            [
              139.76168437893548,
              35.672503074575125
            ],
            [
              139.76154522931685,
              35.672461798952924
            ],
            [
              139.76155131734367,
              35.67244792143951
            ],
            [
              139.76121669636345,
              35.672348569568875
            ],
            [
              139.76121016585674,
              35.67236307866297
            ],
            [
              139.76110017183126,
              35.67233038302865
            ],
            [
              139.76110537425436,
              35.67231866830127
            ],
            [
              139.760971526199,
              35.67227892843055
            ],
            [
              139.76094922956995,
              35.672259714884106
            ],
            [
              139.7609334657701,
              35.672101153904
            ],
            [
              139.7611265704718,
              35.6720879304394
            ],
            [
              139.76114301505504,
              35.67222693110861
            ],
            [
              139.76165101975818,
              35.6723779441591
            ],
            [
              139.76168920665017,
              35.67229251673196
            ],
            [
              139.7618678920822,
              35.67234562364587
            ],
            [
              139.76188069207453,
              35.67236131513125
            ],
            [
              139.76187637533215,
              35.67237095725996
            ],
            [
              139.76204147734944,
              35.67242008981311
            ],
            [
              139.76205980193916,
              35.67243434235345
            ],
            [
              139.76207746061854,
              35.6724521098513
            ],
            [
              139.76208495031767,
              35.67247681190129
            ],
            [
              139.76208647376413,
              35.67250277234268
            ],
            [
              139.76208104229005,
              35.67252377111761
            ],
            [
              139.76205771146934,
              35.67254917602544
            ],
            [
              139.76202897703982,
              35.672564211940475
            ],
            [
              139.76198842944046,
              35.67257175855323
            ],
            [
              139.76196445937276,
              35.672570663602094
            ]
          ]
        ]
      },
      "properties": {
        "plateauBuildingId": "13102-bldg-5702",
        "plateauGmlId": "bldg_932d32e9-22aa-492c-980d-c1bf7cc0f79b",
        "sourceMeshCode": "53394600",
        "heightMeters": 15.4,
        "floors": 3,
        "usage": "3002"
      }
    },
    {
      "type": "Feature",
      "geometry": {
        "type": "Polygon",
        "coordinates": [
          [
            [
              139.76501971152885,
              35.66578439974372
            ],
            [
              139.76488099861513,
              35.66567017998956
            ],
            [
              139.76486727048186,
              35.66568128612592
            ],
            [
              139.76473798426173,
              35.66557483239445
            ],
            [
              139.76475635476555,
              35.66555996117325
            ],
            [
              139.7645898825387,
              35.66542292140774
            ],
            [
              139.76474200811003,
              35.66529984441099
            ],
            [
              139.76532204730546,
              35.66577746805143
            ],
            [
              139.7652614425039,
              35.665826504604695
            ],
            [
              139.7652714980489,
              35.66583478490128
            ],
            [
              139.76523812835205,
              35.66586178021263
            ],
            [
              139.7652280727995,
              35.66585350892704
            ],
            [
              139.7651653124968,
              35.66590429287754
            ],
            [
              139.76509288172625,
              35.66584465300956
            ],
            [
              139.7650925611805,
              35.66584491422634
            ],
            [
              139.76509018803426,
              35.66584295690004
            ],
            [
              139.7650725138933,
              35.66585725168689
            ],
            [
              139.7650017168424,
              35.665798955736896
            ],
            [
              139.76501971152885,
              35.66578439974372
            ]
          ]
        ]
      },
      "properties": {
        "plateauBuildingId": "13102-bldg-3140",
        "plateauGmlId": "bldg_0a55bdd2-72f8-4464-b4df-1da32ec57f02",
        "sourceMeshCode": "53393691",
        "heightMeters": 24.1,
        "floors": 4,
        "usage": "3002"
      }
    },
    {
      "type": "Feature",
      "geometry": {
        "type": "Polygon",
        "coordinates": [
          [
            [
              139.7783990791473,
              35.67227146418978
            ],
            [
              139.7783837225081,
              35.672274341576454
            ],
            [
              139.77836454847048,
              35.67220591861075
            ],
            [
              139.77838509763663,
              35.67220205208581
            ],
            [
              139.77837958785057,
              35.67218239963882
            ],
            [
              139.7783594806113,
              35.6721861762273
            ],
            [
              139.7783263118858,
              35.672067720659214
            ],
            [
              139.77909855957765,
              35.671923309548234
            ],
            [
              139.77919586595328,
              35.67226984204644
            ],
            [
              139.77843841937366,
              35.672411465362785
            ],
            [
              139.7783990791473,
              35.67227146418978
            ]
          ]
        ]
      },
      "properties": {
        "plateauBuildingId": "13102-bldg-3228",
        "plateauGmlId": "bldg_7c79b5e1-dddc-4c1b-acbf-694a96b559b7",
        "sourceMeshCode": "53394602",
        "heightMeters": 27.5,
        "floors": 5,
        "usage": "3002"
      }
    },
    {
      "type": "Feature",
      "geometry": {
        "type": "Polygon",
        "coordinates": [
          [
            [
              139.77683110825078,
              35.668861925134316
            ],
            [
              139.77625130190756,
              35.66901569641334
            ],
            [
              139.77617588178254,
              35.668826282058376
            ],
            [
              139.77615378545104,
              35.6688322206333
            ],
            [
              139.77606932421472,
              35.668620087298386
            ],
            [
              139.77667122417432,
              35.6684604683542
            ],
            [
              139.77683110825078,
              35.668861925134316
            ]
          ]
        ]
      },
      "properties": {
        "plateauBuildingId": "13102-bldg-3751",
        "plateauGmlId": "bldg_ccdc4e97-2b53-462a-b188-7b75c84d30b5",
        "sourceMeshCode": "53394602",
        "heightMeters": 29.4,
        "floors": 5,
        "usage": "3002"
      }
    },
    {
      "type": "Feature",
      "geometry": {
        "type": "Polygon",
        "coordinates": [
          [
            [
              139.77102521596643,
              35.66806387812949
            ],
            [
              139.771046923654,
              35.66804655594494
            ],
            [
              139.77169798013995,
              35.667604064091535
            ],
            [
              139.77184248175624,
              35.66772005462526
            ],
            [
              139.7710072845747,
              35.668310386420835
            ],
            [
              139.77095456088162,
              35.668269390788666
            ],
            [
              139.7709113751912,
              35.6682358012566
            ],
            [
              139.77056869486418,
              35.66796934834637
            ],
            [
              139.77073482306744,
              35.667831164103866
            ],
            [
              139.77102521596643,
              35.66806387812949
            ]
          ]
        ]
      },
      "properties": {
        "plateauBuildingId": "13102-bldg-2853",
        "plateauGmlId": "bldg_74bfe18f-c482-4385-b52f-02aaaf3dcc34",
        "sourceMeshCode": "53394601",
        "heightMeters": 23.6,
        "floors": 4,
        "usage": "3002"
      }
    },
    {
      "type": "Feature",
      "geometry": {
        "type": "Polygon",
        "coordinates": [
          [
            [
              139.7760091905151,
              35.67501503039062
            ],
            [
              139.77534608834821,
              35.675260607313795
            ],
            [
              139.7751322539871,
              35.67490905896485
            ],
            [
              139.77552895373555,
              35.67474745367492
            ],
            [
              139.7757691447059,
              35.67474883968037
            ],
            [
              139.7757817733705,
              35.674745916256065
            ],
            [
              139.77579581497776,
              35.6747444627431
            ],
            [
              139.7758097230843,
              35.674744316155035
            ],
            [
              139.77582638019715,
              35.67474648740607
            ],
            [
              139.77583671809873,
              35.67474922440356
            ],
            [
              139.7760091905151,
              35.67501503039062
            ]
          ]
        ]
      },
      "properties": {
        "plateauBuildingId": "13102-bldg-8277",
        "plateauGmlId": "bldg_228dc70f-56a0-453b-bcd6-3eec08bb3504",
        "sourceMeshCode": "53394602",
        "heightMeters": 15.5,
        "floors": 3,
        "usage": "3002"
      }
    },
    {
      "type": "Feature",
      "geometry": {
        "type": "Polygon",
        "coordinates": [
          [
            [
              139.78197562048373,
              35.67622412013505
            ],
            [
              139.78196423611504,
              35.67623330927773
            ],
            [
              139.78195141608725,
              35.676241776708714
            ],
            [
              139.78193727087142,
              35.676249521573304
            ],
            [
              139.78192180069706,
              35.676256186026286
            ],
            [
              139.78190511603694,
              35.6762617674102
            ],
            [
              139.78188765900515,
              35.676265906265876
            ],
            [
              139.78186942960247,
              35.67626860259294
            ],
            [
              139.78185098024187,
              35.67626976558868
            ],
            [
              139.7818324214512,
              35.676269307867074
            ],
            [
              139.78181408458764,
              35.67626731700304
            ],
            [
              139.7817964115344,
              35.676263794087156
            ],
            [
              139.7817795127051,
              35.67625882930425
            ],
            [
              139.78176360881,
              35.67625278329816
            ],
            [
              139.7817490313195,
              35.676245566074044
            ],
            [
              139.7817357800018,
              35.67623753818125
            ],
            [
              139.78172396521157,
              35.676228879942016
            ],
            [
              139.7816665457664,
              35.67618960955943
            ],
            [
              139.78133152652228,
              35.675960462640845
            ],
            [
              139.7813232480934,
              35.675949913006924
            ],
            [
              139.7813201606575,
              35.67594107822272
            ],
            [
              139.781323038791,
              35.6759319756037
            ],
            [
              139.78132878955924,
              35.67592224326461
            ],
            [
              139.78147879218187,
              35.67577619457259
            ],
            [
              139.78181933219673,
              35.67600907603395
            ],
            [
              139.78183004926876,
              35.676006827187415
            ],
            [
              139.78184120729517,
              35.676006020724486
            ],
            [
              139.78185236433728,
              35.676006746593345
            ],
            [
              139.7818631891004,
              35.67600882437788
            ],
            [
              139.78218437301746,
              35.675762796413295
            ],
            [
              139.78220951311081,
              35.675784647346774
            ],
            [
              139.78235285716352,
              35.6759092507662
            ],
            [
              139.78235627686794,
              35.675916913880435
            ],
            [
              139.78235759763848,
              35.67592457610595
            ],
            [
              139.78235372596367,
              35.675932776956586
            ],
            [
              139.78234543553503,
              35.67594088579872
            ],
            [
              139.78197562048373,
              35.67622412013505
            ]
          ]
        ]
      },
      "properties": {
        "plateauBuildingId": "13102-bldg-11364",
        "plateauGmlId": "bldg_79e83e58-9d57-4934-b422-191a0d1a0727",
        "sourceMeshCode": "53394612",
        "heightMeters": 30.5,
        "floors": 6,
        "usage": "3002"
      }
    },
    {
      "type": "Feature",
      "geometry": {
        "type": "Polygon",
        "coordinates": [
          [
            [
              139.77061932860423,
              35.68811903498442
            ],
            [
              139.77057503540112,
              35.6881035714238
            ],
            [
              139.77056677995847,
              35.68812030557242
            ],
            [
              139.7703592874412,
              35.68804721323419
            ],
            [
              139.7704171582324,
              35.6879375556988
            ],
            [
              139.77066877794982,
              35.68802611139467
            ],
            [
              139.77064609463895,
              35.68806891469048
            ],
            [
              139.77066575589646,
              35.68807585556542
            ],
            [
              139.77063045827825,
              35.68814263866452
            ],
            [
              139.77061062026408,
              35.68813565172191
            ],
            [
              139.77061932860423,
              35.68811903498442
            ]
          ]
        ]
      },
      "properties": {
        "plateauBuildingId": "13102-bldg-2872",
        "plateauGmlId": "bldg_be0b4c30-e006-40a6-8952-be27fbbc620e",
        "sourceMeshCode": "53394621",
        "heightMeters": 8.2,
        "floors": 2,
        "usage": "3002"
      }
    },
    {
      "type": "Feature",
      "geometry": {
        "type": "Polygon",
        "coordinates": [
          [
            [
              139.7771369980879,
              35.69072835918177
            ],
            [
              139.77699642728004,
              35.6910805489692
            ],
            [
              139.7770454051302,
              35.69110037498319
            ],
            [
              139.77727887317494,
              35.691194884420604
            ],
            [
              139.77723108596416,
              35.6912733724048
            ],
            [
              139.77688479415798,
              35.691133136695875
            ],
            [
              139.77687166209506,
              35.691109875186214
            ],
            [
              139.7770446711699,
              35.690666751556826
            ],
            [
              139.77707662287557,
              35.690638374230026
            ],
            [
              139.77711088726815,
              35.69062081441808
            ],
            [
              139.77714978188004,
              35.69061803742722
            ],
            [
              139.77718944436344,
              35.69062319374175
            ],
            [
              139.77730173352347,
              35.6906897671841
            ],
            [
              139.77734163725418,
              35.69071341967865
            ],
            [
              139.7773816183142,
              35.69073712627807
            ],
            [
              139.77731681987208,
              35.69080992686089
            ],
            [
              139.77727197917136,
              35.69078340570207
            ],
            [
              139.77726005115824,
              35.690776279321724
            ],
            [
              139.7771691550335,
              35.690722425144784
            ],
            [
              139.7771369980879,
              35.69072835918177
            ]
          ]
        ]
      },
      "properties": {
        "plateauBuildingId": "13102-bldg-15570",
        "plateauGmlId": "bldg_692282aa-7aed-474a-8182-51b2b958c65a",
        "sourceMeshCode": "53394622",
        "heightMeters": 14.9,
        "floors": 3,
        "usage": "3002"
      }
    },
    {
      "type": "Feature",
      "geometry": {
        "type": "Polygon",
        "coordinates": [
          [
            [
              139.7809917748443,
              35.68413163014779
            ],
            [
              139.7810190536479,
              35.68414717263124
            ],
            [
              139.78104522805197,
              35.68416209268266
            ],
            [
              139.78111140406165,
              35.684199807737926
            ],
            [
              139.78106054376,
              35.684259186031994
            ],
            [
              139.78104043291015,
              35.68426404470331
            ],
            [
              139.78100497886945,
              35.68424780461609
            ],
            [
              139.78099759555022,
              35.68421877725225
            ],
            [
              139.7809435459519,
              35.6841879629022
            ],
            [
              139.78076832128102,
              35.68408806867053
            ],
            [
              139.78081652812816,
              35.68403175400322
            ],
            [
              139.7809917748443,
              35.68413163014779
            ]
          ]
        ]
      },
      "properties": {
        "plateauBuildingId": "13102-bldg-12810",
        "plateauGmlId": "bldg_32def57b-ec59-414c-9748-f455b4a65a51",
        "sourceMeshCode": "53394622",
        "heightMeters": 30.2,
        "floors": 13,
        "usage": "3002"
      }
    },
    {
      "type": "Feature",
      "geometry": {
        "type": "Polygon",
        "coordinates": [
          [
            [
              139.787768982449,
              35.68370008706817
            ],
            [
              139.78773705168,
              35.6836837691714
            ],
            [
              139.78764319229592,
              35.68363581668588
            ],
            [
              139.78759138081796,
              35.683609341762164
            ],
            [
              139.7875872942104,
              35.683607267055265
            ],
            [
              139.78760312671622,
              35.68358685700829
            ],
            [
              139.7876302476086,
              35.683551885083205
            ],
            [
              139.78763992179313,
              35.68353940476148
            ],
            [
              139.78766034259684,
              35.68351307443797
            ],
            [
              139.78780962303122,
              35.68332057100222
            ],
            [
              139.78781879962477,
              35.68330874757726
            ],
            [
              139.78792641992956,
              35.683169959886946
            ],
            [
              139.7880294294705,
              35.6830371374413
            ],
            [
              139.78789777501706,
              35.68297047557558
            ],
            [
              139.78807213615258,
              35.68273284958735
            ],
            [
              139.7882925903239,
              35.68284533328904
            ],
            [
              139.78832770796083,
              35.68289161382041
            ],
            [
              139.7883811296883,
              35.68296200385025
            ],
            [
              139.78833806445397,
              35.683021288992606
            ],
            [
              139.78829975348805,
              35.683074013913135
            ],
            [
              139.78829113842122,
              35.68306977424451
            ],
            [
              139.78813046174395,
              35.68327528981118
            ],
            [
              139.78802221209943,
              35.683413744838624
            ],
            [
              139.78801156511815,
              35.68342736055312
            ],
            [
              139.78786166671648,
              35.683619088823164
            ],
            [
              139.78784447445986,
              35.68364107579024
            ],
            [
              139.78783254467356,
              35.6836372864238
            ],
            [
              139.78778041679783,
              35.68370084944837
            ],
            [
              139.78777748702367,
              35.683704416869055
            ],
            [
              139.787768982449,
              35.68370008706817
            ]
          ]
        ]
      },
      "properties": {
        "plateauBuildingId": "13102-bldg-12391",
        "plateauGmlId": "bldg_4a32eca7-6527-4776-94a2-9f9fc0ed5930",
        "sourceMeshCode": "53394613",
        "heightMeters": 28.3,
        "floors": 4,
        "usage": "3002"
      }
    },
    {
      "type": "Feature",
      "geometry": {
        "type": "Polygon",
        "coordinates": [
          [
            [
              139.78467620763362,
              35.68892736925908
            ],
            [
              139.78470097372434,
              35.68889979732679
            ],
            [
              139.78473377683412,
              35.688919370315084
            ],
            [
              139.78479220393478,
              35.68895427692857
            ],
            [
              139.78475339639718,
              35.688997436924765
            ],
            [
              139.78472829861067,
              35.68902536928169
            ],
            [
              139.78464748801082,
              35.68911535740615
            ],
            [
              139.78461796760914,
              35.68914822656004
            ],
            [
              139.78461419740367,
              35.68915241640733
            ],
            [
              139.78465683045815,
              35.68917794243899
            ],
            [
              139.78457844106435,
              35.68926507324777
            ],
            [
              139.78439929384973,
              35.68915800788099
            ],
            [
              139.78441399883428,
              35.68914160891352
            ],
            [
              139.7842192790097,
              35.68902516269416
            ],
            [
              139.78417896554484,
              35.689001079647
            ],
            [
              139.78417122616733,
              35.689009549369956
            ],
            [
              139.78410396350642,
              35.68896932075644
            ],
            [
              139.78411291914347,
              35.68895940934212
            ],
            [
              139.78403240163607,
              35.68891322622255
            ],
            [
              139.78402667927227,
              35.68887581700026
            ],
            [
              139.78426128091297,
              35.68861964418287
            ],
            [
              139.7842635032015,
              35.68861722040175
            ],
            [
              139.78447168562377,
              35.68839755091652
            ],
            [
              139.7846500548109,
              35.68850957341237
            ],
            [
              139.78444209312158,
              35.68872996438815
            ],
            [
              139.7844354663784,
              35.688725815392
            ],
            [
              139.78424972016742,
              35.6889323339416
            ],
            [
              139.78440523081906,
              35.68902523841291
            ],
            [
              139.78452440431673,
              35.689096495062195
            ],
            [
              139.78452684776306,
              35.689093782927486
            ],
            [
              139.78455635824406,
              35.689060903876545
            ],
            [
              139.78458830993324,
              35.68902531268131
            ],
            [
              139.78467620763362,
              35.68892736925908
            ]
          ]
        ]
      },
      "properties": {
        "plateauBuildingId": "13102-bldg-14859",
        "plateauGmlId": "bldg_0cc7b33b-161f-4893-9753-3494f4d1ef69",
        "sourceMeshCode": "53394622",
        "heightMeters": 30.6,
        "floors": 4,
        "usage": "3002"
      }
    },
    {
      "type": "Feature",
      "geometry": {
        "type": "Polygon",
        "coordinates": [
          [
            [
              139.78711663856427,
              35.6918564315913
            ],
            [
              139.78690117489137,
              35.69205366040217
            ],
            [
              139.7868752205539,
              35.692033999618864
            ],
            [
              139.78702174941196,
              35.69181547382153
            ],
            [
              139.78705379583317,
              35.69180908641753
            ],
            [
              139.78711663856427,
              35.6918564315913
            ]
          ]
        ]
      },
      "properties": {
        "plateauBuildingId": "13102-bldg-15963",
        "plateauGmlId": "bldg_34c149ac-2d23-4c9a-bdf3-c32684ba631b",
        "sourceMeshCode": "53394632",
        "heightMeters": 6.1,
        "floors": 1,
        "usage": "3001"
      }
    },
    {
      "type": "Feature",
      "geometry": {
        "type": "Polygon",
        "coordinates": [
          [
            [
              139.7767176579463,
              35.67930552817514
            ],
            [
              139.7767879620747,
              35.67927720405108
            ],
            [
              139.77690011825914,
              35.67946253368014
            ],
            [
              139.77709268667542,
              35.679384952563545
            ],
            [
              139.77713229027876,
              35.67945039263335
            ],
            [
              139.7770865185368,
              35.67946884037049
            ],
            [
              139.77709916432548,
              35.67948974007934
            ],
            [
              139.77708888723404,
              35.679493872576145
            ],
            [
              139.77710615658128,
              35.679522409064326
            ],
            [
              139.77695110485567,
              35.67958487374031
            ],
            [
              139.77693766459487,
              35.679562657641085
            ],
            [
              139.77692382916783,
              35.67956823065206
            ],
            [
              139.7769370487352,
              35.67959007708694
            ],
            [
              139.7767826487368,
              35.67965227955119
            ],
            [
              139.77676899884304,
              35.6796297307287
            ],
            [
              139.7767546219045,
              35.67963552880874
            ],
            [
              139.7767673669525,
              35.6796565818317
            ],
            [
              139.77661406071346,
              35.67971834382195
            ],
            [
              139.77660153639158,
              35.67969765143577
            ],
            [
              139.77658694946734,
              35.6797035314216
            ],
            [
              139.77659846962155,
              35.67972258193784
            ],
            [
              139.77644178160853,
              35.679785703185914
            ],
            [
              139.77625996492606,
              35.67948526198372
            ],
            [
              139.77633733075118,
              35.67945410214935
            ],
            [
              139.77633283969064,
              35.67944668173211
            ],
            [
              139.77633939274088,
              35.67944404381448
            ],
            [
              139.77633148097297,
              35.67943097017567
            ],
            [
              139.7765007992792,
              35.67936276227809
            ],
            [
              139.77659392312142,
              35.6793252460292
            ],
            [
              139.7766961747052,
              35.6792840473907
            ],
            [
              139.77670461617348,
              35.67929800459955
            ],
            [
              139.77671144546932,
              35.67929524961317
            ],
            [
              139.7767176579463,
              35.67930552817514
            ]
          ]
        ]
      },
      "properties": {
        "plateauBuildingId": "13102-bldg-10474",
        "plateauGmlId": "bldg_70594176-a51a-4425-b8b2-b75edbdef7a1",
        "sourceMeshCode": "53394612",
        "heightMeters": 34.3,
        "floors": 5,
        "usage": "9999"
      }
    },
    {
      "type": "Feature",
      "geometry": {
        "type": "Polygon",
        "coordinates": [
          [
            [
              139.78508397736098,
              35.667708691831216
            ],
            [
              139.78521529992923,
              35.6677305576235
            ],
            [
              139.78522996815133,
              35.667768600554794
            ],
            [
              139.78527005682722,
              35.667781867657915
            ],
            [
              139.78506161460837,
              35.668617501901856
            ],
            [
              139.78499853706816,
              35.66860708376128
            ],
            [
              139.78495508749577,
              35.66878110443011
            ],
            [
              139.78444934038976,
              35.668697152656264
            ],
            [
              139.7844532160063,
              35.66868155956481
            ],
            [
              139.7839639270014,
              35.66860023723093
            ],
            [
              139.7839810907104,
              35.66853137932202
            ],
            [
              139.783938457461,
              35.668524331126996
            ],
            [
              139.78396580857503,
              35.66841473530927
            ],
            [
              139.7845487571015,
              35.66851160014652
            ],
            [
              139.78454532461396,
              35.668525119360325
            ],
            [
              139.78480278117047,
              35.66856786738321
            ],
            [
              139.78488925990877,
              35.66822131502267
            ],
            [
              139.7847947159618,
              35.668205593048064
            ],
            [
              139.7849344540652,
              35.66764553566344
            ],
            [
              139.78507185112989,
              35.66766839556482
            ],
            [
              139.78508397736098,
              35.667708691831216
            ]
          ]
        ]
      },
      "properties": {
        "plateauBuildingId": "13102-bldg-8511",
        "plateauGmlId": "bldg_3ca362a4-293c-4ac2-bfbb-018a20677e1a",
        "sourceMeshCode": "53394602",
        "heightMeters": null,
        "floors": 5,
        "usage": "3002"
      }
    },
    {
      "type": "Feature",
      "geometry": {
        "type": "Polygon",
        "coordinates": [
          [
            [
              139.7797144102831,
              35.66051038925358
            ],
            [
              139.77985200529338,
              35.66038146370091
            ],
            [
              139.78047254780407,
              35.66082224044893
            ],
            [
              139.78033440036833,
              35.66095179742045
            ],
            [
              139.7797144102831,
              35.66051038925358
            ]
          ]
        ]
      },
      "properties": {
        "plateauBuildingId": "13102-bldg-5099",
        "plateauGmlId": "bldg_1b30504b-e662-41fb-8da6-219dcef2b1a4",
        "sourceMeshCode": "53393692",
        "heightMeters": 17.7,
        "floors": 4,
        "usage": "3002"
      }
    },
    {
      "type": "Feature",
      "geometry": {
        "type": "Polygon",
        "coordinates": [
          [
            [
              139.77550174325143,
              35.659786889363296
            ],
            [
              139.77549048301628,
              35.65977931240627
            ],
            [
              139.7756446675153,
              35.65962705400395
            ],
            [
              139.77565383020809,
              35.65963327787977
            ],
            [
              139.77567847755728,
              35.659608952559225
            ],
            [
              139.7757646182601,
              35.65966706034055
            ],
            [
              139.77573935196452,
              35.65969200733118
            ],
            [
              139.77575506109264,
              35.65970260599815
            ],
            [
              139.77575218741597,
              35.659705434941415
            ],
            [
              139.77560496619503,
              35.659850756230895
            ],
            [
              139.77563951971723,
              35.6598740282616
            ],
            [
              139.77561619856053,
              35.659897092283835
            ],
            [
              139.77568872755768,
              35.65994643222858
            ],
            [
              139.77567855913009,
              35.65995643262199
            ],
            [
              139.7757219772277,
              35.65998595540008
            ],
            [
              139.77572879676046,
              35.659979171309516
            ],
            [
              139.77617556440012,
              35.66028314840987
            ],
            [
              139.7763570473987,
              35.660105482389305
            ],
            [
              139.7764309017191,
              35.66015581402501
            ],
            [
              139.77650740709018,
              35.660205875552194
            ],
            [
              139.7765269471026,
              35.66021913588244
            ],
            [
              139.77621018041694,
              35.660529329393334
            ],
            [
              139.77534137353047,
              35.65993851363758
            ],
            [
              139.77538735254223,
              35.65989346702605
            ],
            [
              139.77537565077097,
              35.65988552929603
            ],
            [
              139.77538460338627,
              35.659876790267894
            ],
            [
              139.77538361156743,
              35.659873725116036
            ],
            [
              139.7753827322807,
              35.65986777561868
            ],
            [
              139.77538207245757,
              35.659863809251675
            ],
            [
              139.77538748825648,
              35.65985849374586
            ],
            [
              139.7753925686734,
              35.659858766602746
            ],
            [
              139.77539820178654,
              35.65985840876287
            ],
            [
              139.77540328233368,
              35.659858501344395
            ],
            [
              139.77541002441913,
              35.65985192455071
            ],
            [
              139.77542205740306,
              35.6598600427117
            ],
            [
              139.7754690310721,
              35.659814005034285
            ],
            [
              139.77547190135542,
              35.65981589930067
            ],
            [
              139.77550174325143,
              35.659786889363296
            ]
          ]
        ]
      },
      "properties": {
        "plateauBuildingId": "13102-bldg-9813",
        "plateauGmlId": "bldg_997fde71-9138-4d1a-ba84-6ff57047e6a7",
        "sourceMeshCode": "53393692",
        "heightMeters": 33.3,
        "floors": 4,
        "usage": "3002"
      }
    },
    {
      "type": "Feature",
      "geometry": {
        "type": "Polygon",
        "coordinates": [
          [
            [
              139.7858370244656,
              35.65886128016558
            ],
            [
              139.78581273600906,
              35.65884468528239
            ],
            [
              139.78591728019666,
              35.65874052842971
            ],
            [
              139.7859202657178,
              35.65873466976559
            ],
            [
              139.78593343519117,
              35.658708804582766
            ],
            [
              139.78595309523496,
              35.65868916324314
            ],
            [
              139.78598215522237,
              35.65866790221993
            ],
            [
              139.78606304719122,
              35.65859131711303
            ],
            [
              139.78626166329403,
              35.65872245485074
            ],
            [
              139.78620586578586,
              35.65877867883499
            ],
            [
              139.78619856311926,
              35.65880112111832
            ],
            [
              139.78618075220083,
              35.658831669860284
            ],
            [
              139.78615643881764,
              35.65885735042966
            ],
            [
              139.78612870416936,
              35.658878611112364
            ],
            [
              139.78610098283283,
              35.65889599678234
            ],
            [
              139.7860900353266,
              35.65889977826359
            ],
            [
              139.78592625419975,
              35.6590671893899
            ],
            [
              139.7859200545676,
              35.65909188462569
            ],
            [
              139.7859147458619,
              35.6591041412362
            ],
            [
              139.78590612352875,
              35.659116757091546
            ],
            [
              139.78589672880943,
              35.65912811071695
            ],
            [
              139.78588556831983,
              35.659137120070795
            ],
            [
              139.78586954783395,
              35.659146668333285
            ],
            [
              139.7858510987349,
              35.65915414157214
            ],
            [
              139.78582371509742,
              35.659160531436484
            ],
            [
              139.78580162443893,
              35.65916259588222
            ],
            [
              139.7857757805534,
              35.65916132375415
            ],
            [
              139.78575622196695,
              35.659158611903756
            ],
            [
              139.78573635760648,
              35.659150040991534
            ],
            [
              139.78571901224728,
              35.65914011900944
            ],
            [
              139.78570036736343,
              35.65912388688555
            ],
            [
              139.7856828084562,
              35.659101615975594
            ],
            [
              139.78548529946627,
              35.65896606099355
            ],
            [
              139.78548000857668,
              35.65896687012886
            ],
            [
              139.78547128225102,
              35.65896857927371
            ],
            [
              139.7854616630267,
              35.65896740366278
            ],
            [
              139.7854541553288,
              35.65896289380283
            ],
            [
              139.78519206058397,
              35.65878594042704
            ],
            [
              139.78521284808753,
              35.6587651260689
            ],
            [
              139.78520610234187,
              35.658760886910336
            ],
            [
              139.7852032338673,
              35.65875565778842
            ],
            [
              139.78520555832952,
              35.65874718579142
            ],
            [
              139.78524822715048,
              35.658704838205956
            ],
            [
              139.7852560706904,
              35.6587017766621
            ],
            [
              139.78526446467973,
              35.65870168987531
            ],
            [
              139.7853444648276,
              35.6586216346016
            ],
            [
              139.78535673173792,
              35.65860933571871
            ],
            [
              139.78571785366626,
              35.658859159944015
            ],
            [
              139.78570934263155,
              35.658870333629665
            ],
            [
              139.78572800058936,
              35.65888305039519
            ],
            [
              139.78581722222756,
              35.65887846157696
            ],
            [
              139.7858370244656,
              35.65886128016558
            ]
          ]
        ]
      },
      "properties": {
        "plateauBuildingId": "13102-bldg-7675",
        "plateauGmlId": "bldg_28476e16-ba7c-4fe3-bf1d-90cf577fe301",
        "sourceMeshCode": "53393692",
        "heightMeters": 29.8,
        "floors": 5,
        "usage": "3002"
      }
    },
    {
      "type": "Feature",
      "geometry": {
        "type": "Polygon",
        "coordinates": [
          [
            [
              139.784830588828,
              35.65972064657639
            ],
            [
              139.78468225213345,
              35.65961980400796
            ],
            [
              139.78455291802155,
              35.65974648500852
            ],
            [
              139.78470114436118,
              35.659847291634584
            ],
            [
              139.78457808815543,
              35.65996974233569
            ],
            [
              139.78443042240002,
              35.659869626241004
            ],
            [
              139.78441684024475,
              35.65988287093628
            ],
            [
              139.78421324733785,
              35.659744787564485
            ],
            [
              139.78458214300403,
              35.65938231431197
            ],
            [
              139.7847762299481,
              35.659514012402376
            ],
            [
              139.78478290489227,
              35.6595075603473
            ],
            [
              139.78483986148757,
              35.6595461801724
            ],
            [
              139.78483308700066,
              35.65955286564664
            ],
            [
              139.78513790909543,
              35.65975931275106
            ],
            [
              139.78513194138395,
              35.65976516929979
            ],
            [
              139.7851743361986,
              35.65979384998409
            ],
            [
              139.78517388796612,
              35.659804576166636
            ],
            [
              139.78517079044167,
              35.65981286757734
            ],
            [
              139.78516703022825,
              35.659821158722906
            ],
            [
              139.78516061909798,
              35.65982971922046
            ],
            [
              139.78515354554852,
              35.659837828765156
            ],
            [
              139.78514459551732,
              35.659844044671246
            ],
            [
              139.7851352043423,
              35.65984917875015
            ],
            [
              139.78512559270328,
              35.65985359164014
            ],
            [
              139.78511167532105,
              35.659855118405545
            ],
            [
              139.7850688168099,
              35.65982611301867
            ],
            [
              139.78477078307026,
              35.66011899413502
            ],
            [
              139.784567089551,
              35.65998091132581
            ],
            [
              139.784830588828,
              35.65972064657639
            ]
          ]
        ]
      },
      "properties": {
        "plateauBuildingId": "13102-bldg-1478",
        "plateauGmlId": "bldg_f843c6a2-8d52-4dcc-bc01-bc7d0ede2733",
        "sourceMeshCode": "53393692",
        "heightMeters": 29.6,
        "floors": 7,
        "usage": "3002"
      }
    },
    {
      "type": "Feature",
      "geometry": {
        "type": "Polygon",
        "coordinates": [
          [
            [
              139.77314045906667,
              35.65450917242821
            ],
            [
              139.7731232173258,
              35.654526469321276
            ],
            [
              139.7730007995467,
              35.65444528424677
            ],
            [
              139.7729168011271,
              35.65452961090182
            ],
            [
              139.77289549679207,
              35.65451535757558
            ],
            [
              139.7729966265298,
              35.654413734007136
            ],
            [
              139.77314045906667,
              35.65450917242821
            ]
          ]
        ]
      },
      "properties": {
        "plateauBuildingId": "13102-bldg-2954",
        "plateauGmlId": "bldg_01c61dfd-c5c9-454f-afbc-662aa6709160",
        "sourceMeshCode": "53393681",
        "heightMeters": null,
        "floors": 1,
        "usage": "3003"
      }
    },
    {
      "type": "Feature",
      "geometry": {
        "type": "Polygon",
        "coordinates": [
          [
            [
              139.77234113645093,
              35.670713048415145
            ],
            [
              139.7721553210073,
              35.67079263644679
            ],
            [
              139.77176665966363,
              35.670730684371016
            ],
            [
              139.7716195546317,
              35.6706032360135
            ],
            [
              139.77162322313566,
              35.67058740977923
            ],
            [
              139.77167384536386,
              35.67054811781022
            ],
            [
              139.77161569023258,
              35.670471741700986
            ],
            [
              139.77176487295495,
              35.67039619285378
            ],
            [
              139.7722773576429,
              35.67047757739719
            ],
            [
              139.77248883124267,
              35.67072015384712
            ],
            [
              139.77239334381292,
              35.670767878341124
            ],
            [
              139.77234113645093,
              35.670713048415145
            ]
          ]
        ]
      },
      "properties": {
        "plateauBuildingId": "13102-bldg-10473",
        "plateauGmlId": "bldg_35741517-9a06-4d9b-81ed-d11ec2576b30",
        "sourceMeshCode": "53394601",
        "heightMeters": 55.5,
        "floors": 19,
        "usage": "3002"
      }
    },
    {
      "type": "Feature",
      "geometry": {
        "type": "Polygon",
        "coordinates": [
          [
            [
              139.78453152033353,
              35.6826917069827
            ],
            [
              139.78451415179825,
              35.682711719402306
            ],
            [
              139.784403761326,
              35.68265617714602
            ],
            [
              139.78411745367086,
              35.68251211141703
            ],
            [
              139.7839831303123,
              35.68244451666396
            ],
            [
              139.78398004238932,
              35.682435591819946
            ],
            [
              139.7839796090203,
              35.68242171142194
            ],
            [
              139.7839807203072,
              35.68241116492904
            ],
            [
              139.78398160985788,
              35.68240188116677
            ],
            [
              139.78398249674402,
              35.68239692398679
            ],
            [
              139.78398986000053,
              35.6823882467968
            ],
            [
              139.78401301113107,
              35.682360962752334
            ],
            [
              139.78404820214746,
              35.682319487030476
            ],
            [
              139.7840729452885,
              35.682290328773
            ],
            [
              139.78409924729468,
              35.68225933234978
            ],
            [
              139.7841059907746,
              35.68225239544752
            ],
            [
              139.7841125125769,
              35.682246628434534
            ],
            [
              139.78412455788225,
              35.68224158567752
            ],
            [
              139.78413593804376,
              35.68224023827095
            ],
            [
              139.78414577017142,
              35.68224105442401
            ],
            [
              139.78415902570978,
              35.68224421373793
            ],
            [
              139.78417084380578,
              35.682249356382215
            ],
            [
              139.784373780933,
              35.682342595829205
            ],
            [
              139.78455531364068,
              35.682426001313026
            ],
            [
              139.7845189362261,
              35.682474840906906
            ],
            [
              139.7844825587677,
              35.682523679587995
            ],
            [
              139.78457047371933,
              35.682567432647836
            ],
            [
              139.78455842186486,
              35.682583201767635
            ],
            [
              139.78457693263297,
              35.68259238522737
            ],
            [
              139.78461099423114,
              35.68260927269118
            ],
            [
              139.78456831592362,
              35.68266387942748
            ],
            [
              139.78455959078417,
              35.68265936813423
            ],
            [
              139.78453152033353,
              35.6826917069827
            ]
          ]
        ]
      },
      "properties": {
        "plateauBuildingId": "13102-bldg-12306",
        "plateauGmlId": "bldg_8df3166b-df28-4208-9fbd-883cf98547a8",
        "sourceMeshCode": "53394612",
        "heightMeters": 34.1,
        "floors": 7,
        "usage": "3002"
      }
    },
    {
      "type": "Feature",
      "geometry": {
        "type": "Polygon",
        "coordinates": [
          [
            [
              139.78198795487464,
              35.66179421657224
            ],
            [
              139.78205224100566,
              35.66184015097421
            ],
            [
              139.78192930144712,
              35.66195563675751
            ],
            [
              139.78193821077,
              35.66196199525111
            ],
            [
              139.78186067175625,
              35.662034558844034
            ],
            [
              139.78178813851912,
              35.66198296919282
            ],
            [
              139.78178703453077,
              35.66198215658177
            ],
            [
              139.78198795487464,
              35.66179421657224
            ]
          ]
        ]
      },
      "properties": {
        "plateauBuildingId": "13102-bldg-3852",
        "plateauGmlId": "bldg_fee39d2c-fd06-4f35-b0a1-a093a3e16fd5",
        "sourceMeshCode": "53393692",
        "heightMeters": 3.6,
        "floors": 1,
        "usage": "3001"
      }
    },
    {
      "type": "Feature",
      "geometry": {
        "type": "Polygon",
        "coordinates": [
          [
            [
              139.77484390988403,
              35.65176532126299
            ],
            [
              139.77501399559006,
              35.65159585489573
            ],
            [
              139.77535219934364,
              35.65182199317641
            ],
            [
              139.77518566152034,
              35.65198785622373
            ],
            [
              139.7751298073399,
              35.6519505122753
            ],
            [
              139.77502923671003,
              35.65205060741345
            ],
            [
              139.77509546699088,
              35.6520948961199
            ],
            [
              139.77493322717766,
              35.65225652442102
            ],
            [
              139.7745847460783,
              35.6520235304105
            ],
            [
              139.77474764920495,
              35.651861271030675
            ],
            [
              139.7747493135275,
              35.651850635602464
            ],
            [
              139.7747567251829,
              35.65183369333701
            ],
            [
              139.77476833541576,
              35.65181404898444
            ],
            [
              139.77478104573706,
              35.65180026411013
            ],
            [
              139.77479430587198,
              35.651789723554224
            ],
            [
              139.77481275739362,
              35.6517780164346
            ],
            [
              139.77482954972857,
              35.651769911306474
            ],
            [
              139.77484390988403,
              35.65176532126299
            ]
          ]
        ]
      },
      "properties": {
        "plateauBuildingId": "13102-bldg-525",
        "plateauGmlId": "bldg_c64d9bf2-61ed-48d8-8315-8efadf440863",
        "sourceMeshCode": "53393681",
        "heightMeters": 27.0,
        "floors": 3,
        "usage": "3002"
      }
    }
  ]
}
